STARLINK-1661
1 26355C 20062AH  21325.15730487 -.00013969  00000-0 -93601-3 0  3256
2 26355  53.0535 222.5244 0002167  70.6372  39.2093 15.06408840    11
